{"type":"FeatureCollection", "features": [
{"type":"Feature","geometry":{"type":"Polygon","coordinates":[[[4.737380981445311,45.14877986907958],[4.711740970611571,45.190091609954834],[4.748366594314575,45.20089960098267],[4.758780479431153,45.268590450286865],[4.73238229751587,45.331913471221924],[4.615799188613892,45.31025958061218],[4.60531497001648,45.253401041030884],[4.49078369140625,45.2322108745575],[4.443565130233765,45.14218020439148],[4.509109497070311,45.11948299407959],[4.498672246932983,45.05236077308655],[4.505137920379639,45.05185055732727],[4.545174837112428,45.0966362953186],[4.618551969528199,45.12472915649415],[4.652998924255371,45.11258816719055],[4.737380981445311,45.14877986907958]]]},"properties":{"bv2022":"07010","libbv2022":"Annonay","nb_com":"29"}},
{"type":"Feature","geometry":{"type":"Polygon","coordinates":[[[4.547040224075317,44.66312122344971],[4.492741823196412,44.718119144439704],[4.439557552337646,44.71054792404175],[4.440590620040894,44.75337791442871],[4.370134830474855,44.77967381477356],[4.318356275558471,44.777185678482056],[4.255298137664794,44.79868149757385],[4.192823648452759,44.77660012245178],[4.05455207824707,44.66596746444702],[4.098429918289185,44.62317872047424],[4.209502696990966,44.59990644454956],[4.24702262878418,44.60978984832764],[4.321648359298706,44.58213686943054],[4.332489490509034,44.51309323310852],[4.401828050613403,44.48444867134095],[4.458001375198364,44.49049139022827],[4.476611852645874,44.5865399837494],[4.547040224075317,44.66312122344971]]]},"properties":{"bv2022":"07019","libbv2022":"Aubenas","nb_com":"54"}},
{"type":"Feature","geometry":{"type":"Polygon","coordinates":[[[4.653181791305543,44.294806718826294],[4.649064779281617,44.37307262420654],[4.670220851898193,44.450727224349976],[4.586848735809326,44.480437994003296],[4.520144224166869,44.48605036735535],[4.467714548110962,44.44070768356323],[4.533706903457642,44.41341900825501],[4.512014150619506,44.33539962768555],[4.577852487564087,44.30905842781067],[4.653181791305543,44.294806718826294]]]},"properties":{"bv2022":"07042","libbv2022":"Bourg-Saint-Andéol","nb_com":"6"}},
{"type":"Feature","geometry":{"type":"Polygon","coordinates":[[[4.432692766189575,44.98021364212036],[4.315331935882569,45.00081729888916],[4.306419134140015,44.94845962524414],[4.229379177093506,44.938361167907715],[4.178556203842163,44.88001370429993],[4.255298137664794,44.79868149757385],[4.318356275558471,44.777185678482056],[4.370134830474855,44.77967381477356],[4.380910158157349,44.831820249557495],[4.465659379959106,44.83379507064819],[4.552431344985962,44.86430382728577],[4.552287340164184,44.870114326477044],[4.540268421173096,44.874207258224494],[4.531611919403075,44.88140559196472],[4.532585382461547,44.88552498817444],[4.522729158401489,44.89994239807129],[4.549151182174683,44.9285569190979],[4.526275157928467,44.95716786384583],[4.470039844512939,44.96883058547973],[4.435365676879883,44.978063106536865],[4.432692766189575,44.98021364212036]]]},"properties":{"bv2022":"07064","libbv2022":"Le Cheylard","nb_com":"26"}},
{"type":"Feature","geometry":{"type":"Polygon","coordinates":[[[3.965691447257996,44.537681579589844],[4.124468803405762,44.50274133682251],[4.141138792037963,44.449235916137695],[4.21968412399292,44.435493469238274],[4.247623205184935,44.39250707626343],[4.275888442993164,44.466692209243774],[4.310987710952759,44.49852204322815],[4.264191389083861,44.51933431625366],[4.200186491012573,44.512099504470825],[4.1900315284729,44.56460881233215],[4.209502696990966,44.59990644454956],[4.098429918289185,44.62317872047424],[3.999775886535644,44.58377170562744],[3.965691447257996,44.537681579589844]]]},"properties":{"bv2022":"07110","libbv2022":"Joyeuse","nb_com":"20"}},
{"type":"Feature","geometry":{"type":"Polygon","coordinates":[[[4.498672246932983,45.05236077308655],[4.432692766189575,44.98021364212036],[4.435365676879883,44.978063106536865],[4.470039844512939,44.96883058547973],[4.526275157928467,44.95716786384583],[4.549151182174683,44.9285569190979],[4.55140995979309,44.9327392578125],[4.568358659744263,44.93771529197693],[4.600794553756714,44.94488978385925],[4.693589687347412,44.94984579086304],[4.712052583694459,44.98924279212952],[4.752642393112183,45.0076220035553],[4.694027662277222,45.03948354721069],[4.59844446182251,45.05907845497131],[4.505137920379639,45.05185055732727],[4.498672246932983,45.05236077308655]]]},"properties":{"bv2022":"07129","libbv2022":"Lamastre","nb_com":"12"}},
{"type":"Feature","geometry":{"type":"Polygon","coordinates":[[[4.332489490509034,44.51309323310852],[4.321648359298706,44.58213686943054],[4.24702262878418,44.60978984832764],[4.209502696990966,44.59990644454956],[4.1900315284729,44.56460881233215],[4.200186491012573,44.512099504470825],[4.264191389083861,44.51933431625366],[4.310987710952759,44.49852204322815],[4.332489490509034,44.51309323310852]]]},"properties":{"bv2022":"07132","libbv2022":"Largentière","nb_com":"10"}},
{"type":"Feature","geometry":{"type":"Polygon","coordinates":[[[4.658407926559448,44.806190729141235],[4.66603946685791,44.8472661972046],[4.6658775806427,44.85037589073181],[4.653304338455201,44.85157227516174],[4.640284061431885,44.84701132774353],[4.630305290222168,44.85385799407959],[4.608279943466186,44.850873947143555],[4.581139326095582,44.87207555770874],[4.565810918807984,44.86368370056152],[4.552431344985962,44.86430382728577],[4.465659379959106,44.83379507064819],[4.380910158157349,44.831820249557495],[4.370134830474855,44.77967381477356],[4.440590620040894,44.75337791442871],[4.439557552337646,44.71054792404175],[4.492741823196412,44.718119144439704],[4.547040224075317,44.66312122344971],[4.560364961624146,44.62491726875306],[4.640353918075562,44.64311075210572],[4.732259988784791,44.640466928482056],[4.738384246826172,44.70164918899537],[4.71153450012207,44.76333856582642],[4.652730703353883,44.774433135986335],[4.658407926559448,44.806190729141235]]]},"properties":{"bv2022":"07186","libbv2022":"Privas","nb_com":"35"}},
{"type":"Feature","geometry":{"type":"Polygon","coordinates":[[[4.310987710952759,44.49852204322815],[4.275888442993164,44.466692209243774],[4.247623205184935,44.39250707626343],[4.294900178909301,44.364646911621094],[4.322140455245972,44.38700103759766],[4.401828050613403,44.48444867134095],[4.332489490509034,44.51309323310852],[4.310987710952759,44.49852204322815]]]},"properties":{"bv2022":"07201","libbv2022":"Ruoms","nb_com":"7"}},
{"type":"Feature","geometry":{"type":"Polygon","coordinates":[[[4.752642393112183,45.0076220035553],[4.852566242218018,44.9795343875885],[4.857298135757446,45.01700258255005],[4.931866884231567,45.05361485481262],[4.907001495361328,45.144253730773926],[4.823326826095581,45.12878346443176],[4.737380981445311,45.14877986907958],[4.652998924255371,45.11258816719055],[4.618551969528199,45.12472915649415],[4.545174837112428,45.0966362953186],[4.505137920379639,45.05185055732727],[4.59844446182251,45.05907845497131],[4.694027662277222,45.03948354721069],[4.752642393112183,45.0076220035553]]]},"properties":{"bv2022":"07324","libbv2022":"Tournon-sur-Rhône","nb_com":"27"}},
{"type":"Feature","geometry":{"type":"Polygon","coordinates":[[[4.322140455245972,44.38700103759766],[4.365696668624878,44.371506452560425],[4.464017391204834,44.360501527786255],[4.464760780334473,44.341674566268914],[4.512014150619506,44.33539962768555],[4.533706903457642,44.41341900825501],[4.467714548110962,44.44070768356323],[4.458001375198364,44.49049139022827],[4.401828050613403,44.48444867134095],[4.322140455245972,44.38700103759766]]]},"properties":{"bv2022":"07330","libbv2022":"Vallon-Pont-d'Arc","nb_com":"4"}},
{"type":"Feature","geometry":{"type":"Polygon","coordinates":[[[4.053664684295655,44.35879373550415],[4.089943170547485,44.373276710510254],[4.126739501953125,44.33773326873779],[4.267140150070191,44.32483577728272],[4.294900178909301,44.364646911621094],[4.247623205184935,44.39250707626343],[4.21968412399292,44.435493469238274],[4.141138792037963,44.449235916137695],[4.124468803405762,44.50274133682251],[3.965691447257996,44.537681579589844],[3.941804289817809,44.48429417610168],[3.83591890335083,44.508113861083984],[3.84080696105957,44.4722728729248],[3.808188796043396,44.41832184791565],[3.888682723045348,44.39296436309815],[3.945338726043702,44.400864124298096],[3.971718549728394,44.42638182640076],[4.053664684295655,44.35879373550415]]]},"properties":{"bv2022":"07334","libbv2022":"Les Vans","nb_com":"18"}},
{"type":"Feature","geometry":{"type":"Polygon","coordinates":[[[4.591112,44.93886],[4.568359,44.937715],[4.55141,44.932739],[4.548243,44.914917],[4.522729,44.899942],[4.532585,44.885525],[4.531612,44.881406],[4.540268,44.874207],[4.552287,44.870114],[4.552431,44.864304],[4.565811,44.863684],[4.581139,44.872076],[4.60828,44.850874],[4.630305,44.853858],[4.640284,44.847011],[4.653304,44.851572],[4.665878,44.850376],[4.673662,44.851619],[4.678207,44.861329],[4.703894,44.870799],[4.683525,44.885401],[4.724121,44.921543],[4.693565,44.949735],[4.591112,44.93886]]]},"properties":{"bv2022":"07338","libbv2022":"Vernoux-en-Vivarais","nb_com":"7"}},
{"type":"Feature","geometry":{"type":"Polygon","coordinates":[[[4.520144224166869,44.48605036735535],[4.549838066101073,44.50477051734924],[4.560364961624146,44.62491726875306],[4.547040224075317,44.66312122344971],[4.476611852645874,44.5865399837494],[4.458001375198364,44.49049139022827],[4.467714548110962,44.44070768356323],[4.520144224166869,44.48605036735535]]]},"properties":{"bv2022":"07341","libbv2022":"Villeneuve-de-Berg","nb_com":"6"}},
{"type":"Feature","geometry":{"type":"Polygon","coordinates":[[[4.658407926559448,44.806190729141235],[4.712400674819946,44.79843664169311],[4.821484804153442,44.81738328933716],[4.849497318267821,44.864272356033325],[4.83082127571106,44.88452076911926],[4.709479808807373,44.88831043243408],[4.703894376754761,44.87079906463623],[4.678207159042358,44.861329317092896],[4.673662424087525,44.851618528366096],[4.66603946685791,44.8472661972046],[4.658407926559448,44.806190729141235]]]},"properties":{"bv2022":"07349","libbv2022":"La Voulte-sur-Rhône","nb_com":"7"}},
{"type":"Feature","geometry":{"type":"Polygon","coordinates":[[[1.915144503116608,43.19664120674133],[1.978477001190186,43.12863278388978],[2.121931672096252,43.17389297485351],[2.163966417312622,43.15427494049072],[2.210858464241028,43.16271543502808],[2.180188655853272,43.17913603782654],[2.204678893089294,43.287591695785515],[2.177234530448914,43.31835079193115],[2.10208797454834,43.3381474018097],[2.0673668384552,43.28326463699341],[2.010594010353087,43.27932286262512],[1.987930417060852,43.214449644088745],[1.915144503116608,43.19664120674133]]]},"properties":{"bv2022":"11049","libbv2022":"Bram","nb_com":"22"}},
{"type":"Feature","geometry":{"type":"Polygon","coordinates":[[[2.210858464241028,43.16271543502808],[2.31175947189331,43.11575102806092],[2.365688681602478,43.07726216316223],[2.414929509162903,43.08426809310913],[2.488619089126587,43.114477872848504],[2.484801530838013,43.13379788398743],[2.410529851913453,43.146333456039436],[2.410248160362244,43.23175001144409],[2.50451695919037,43.240742921829224],[2.534032344818115,43.25023865699768],[2.53991687297821,43.345627546310425],[2.565786957740784,43.42295956611633],[2.438999891281128,43.37597346305847],[2.320610642433167,43.357409477233894],[2.282011270523071,43.44122552871704],[2.091681718826294,43.39388608932495],[2.10208797454834,43.3381474018097],[2.177234530448914,43.31835079193115],[2.204678893089294,43.287591695785515],[2.180188655853272,43.17913603782654],[2.210858464241028,43.16271543502808]]]},"properties":{"bv2022":"11069","libbv2022":"Carcassonne","nb_com":"58"}},
{"type":"Feature","geometry":{"type":"Polygon","coordinates":[[[2.091681718826294,43.39388608932495],[2.047703146934509,43.375694036483765],[1.914630174636841,43.40074920654297],[1.869257509708404,43.39327597618104],[1.824273943901062,43.32075762748719],[1.822908461093903,43.26513433456421],[1.790605783462524,43.23985719680786],[1.915144503116608,43.19664120674133],[1.987930417060852,43.214449644088745],[2.010594010353087,43.27932286262512],[2.0673668384552,43.28326463699341],[2.10208797454834,43.3381474018097],[2.091681718826294,43.39388608932495]]]},"properties":{"bv2022":"11076","libbv2022":"Castelnaudary","nb_com":"31"}},
{"type":"Feature","geometry":{"type":"Polygon","coordinates":[[[3.054346323013307,43.28004121780396],[3.035637617111206,43.2296302318573],[3.142521381378174,43.202961683273315],[3.184329867362976,43.1688175201416],[3.2405606508255,43.21280884742737],[3.193216562271119,43.25040435791016],[3.14651882648468,43.247158765792854],[3.054346323013307,43.28004121780396]]]},"properties":{"bv2022":"11106","libbv2022":"Coursan","nb_com":"3"}},
{"type":"Feature","geometry":{"type":"Polygon","coordinates":[[[2.889278531074524,43.07928824424744],[2.831474900245666,43.134644985198975],[2.857380867004394,43.20745944976806],[2.823421239852905,43.274558544158936],[2.786968350410461,43.27443051338196],[2.761166930198669,43.24415159225464],[2.650675654411316,43.210712432861335],[2.567280054092407,43.22941732406617],[2.534032344818115,43.25023865699768],[2.50451695919037,43.240742921829224],[2.526199102401733,43.213511943817146],[2.496562600135803,43.186437129974365],[2.484801530838013,43.13379788398743],[2.488619089126587,43.114477872848504],[2.414929509162903,43.08426809310913],[2.470192670822144,43.04722857475281],[2.452077150344849,43.02042627334595],[2.463589787483215,42.978959798812866],[2.528498649597168,42.91990947723389],[2.626474261283874,42.948137283325195],[2.66648006439209,42.982425212860115],[2.765693187713623,43.059429883956916],[2.889278531074524,43.07928824424744]]]},"properties":{"bv2022":"11203","libbv2022":"Lézignan-Corbières","nb_com":"59"}},
{"type":"Feature","geometry":{"type":"Polygon","coordinates":[[[2.081076622009277,42.94601845741273],[2.154611468315124,42.955525159835815],[2.229142427444458,42.98122262954711],[2.276223301887512,42.970955848693855],[2.309911370277405,43.01750326156617],[2.36025083065033,42.989744901657104],[2.414640784263611,42.990297555923455],[2.452077150344849,43.02042627334595],[2.470192670822144,43.04722857475281],[2.414929509162903,43.08426809310913],[2.365688681602478,43.07726216316223],[2.31175947189331,43.11575102806092],[2.210858464241028,43.16271543502808],[2.163966417312622,43.15427494049072],[2.121931672096252,43.17389297485351],[1.978477001190186,43.12863278388978],[2.044610261917114,43.06478214263916],[2.026596546173096,43.01105999946594],[2.066438078880311,42.99829888343812],[2.081076622009277,42.94601845741273]]]},"properties":{"bv2022":"11206","libbv2022":"Limoux","nb_com":"62"}},
{"type":"Feature","geometry":{"type":"Polygon","coordinates":[[[3.184329867362976,43.1688175201416],[3.142521381378174,43.202961683273315],[3.035637617111206,43.2296302318573],[3.054346323013307,43.28004121780396],[3.004765629768372,43.287782192230225],[3.025960922241211,43.350831508636475],[2.977449417114258,43.3924834728241],[2.900679469108582,43.36443567276],[2.855173468589783,43.40618109703064],[2.776667237281799,43.438822269439704],[2.759482264518738,43.379417657852166],[2.786968350410461,43.27443051338196],[2.823421239852905,43.274558544158936],[2.857380867004394,43.20745944976806],[2.831474900245666,43.134644985198975],[2.889278531074524,43.07928824424744],[3.020177721977234,43.064170837402344],[3.085044145584106,43.05694389343262],[3.148738741874695,43.139333963394165],[3.184329867362976,43.1688175201416]]]},"properties":{"bv2022":"11262","libbv2022":"Narbonne","nb_com":"32"}},
{"type":"Feature","geometry":{"type":"Polygon","coordinates":[[[3.020177721977234,43.064170837402344],[3.002842664718628,42.994291305541985],[3.038017272949219,42.97723388671875],[3.085044145584106,43.05694389343262],[3.020177721977234,43.064170837402344]]]},"properties":{"bv2022":"11266","libbv2022":"Port-la-Nouvelle","nb_com":"1"}},
{"type":"Feature","geometry":{"type":"Polygon","coordinates":[[[2.452077150344849,43.02042627334595],[2.414640784263611,42.990297555923455],[2.36025083065033,42.989744901657104],[2.309911370277405,43.01750326156617],[2.276223301887512,42.970955848693855],[2.229142427444458,42.98122262954711],[2.154611468315124,42.955525159835815],[2.081076622009277,42.94601845741273],[2.010634541511536,42.90148639678955],[2.008347392082214,42.81193971633911],[1.949332416057587,42.7989227771759],[1.9224813580513,42.77047348022461],[2.006487488746644,42.6713490486145],[2.061180114746094,42.724624156951904],[2.100534915924072,42.73171472549438],[2.16149377822876,42.70052289962769],[2.176143050193787,42.65259599685668],[2.264480590820312,42.70233178138733],[2.355345487594604,42.72804856300354],[2.336096525192262,42.840709447860725],[2.412739753723144,42.894896268844604],[2.466045618057251,42.89052486419678],[2.528498649597168,42.91990947723389],[2.463589787483215,42.978959798812866],[2.452077150344849,43.02042627334595]]]},"properties":{"bv2022":"11304","libbv2022":"Quillan","nb_com":"68"}},
{"type":"Feature","geometry":{"type":"Polygon","coordinates":[[[2.889278531074524,43.07928824424744],[2.765693187713623,43.059429883956916],[2.66648006439209,42.982425212860115],[2.692072868347168,42.937795639038086],[2.734692692756653,42.93763995170593],[2.81011962890625,42.89841961860657],[2.87160360813141,42.921954870224],[2.902623057365417,42.95870614051819],[3.017883896827698,42.94188714027405],[3.038017272949219,42.97723388671875],[3.002842664718628,42.994291305541985],[3.020177721977234,43.064170837402344],[2.889278531074524,43.07928824424744]]]},"properties":{"bv2022":"11379","libbv2022":"Sigean","nb_com":"14"}},
{"type":"Feature","geometry":{"type":"Polygon","coordinates":[[[2.50451695919037,43.240742921829224],[2.410248160362244,43.23175001144409],[2.410529851913453,43.146333456039436],[2.484801530838013,43.13379788398743],[2.496562600135803,43.186437129974365],[2.526199102401733,43.213511943817146],[2.50451695919037,43.240742921829224]]]},"properties":{"bv2022":"11397","libbv2022":"Trèbes","nb_com":"9"}},
{"type":"Feature","geometry":{"type":"Polygon","coordinates":[[[2.151120781898498,44.52753305435181],[2.152548909187317,44.57158589363098],[2.18181335926056,44.616281270980835],[2.152864336967468,44.6311161518097],[2.088544487953186,44.58782172203064],[2.026785850524901,44.567362546920776],[2.068833708763123,44.51332879066467],[2.109884142875671,44.4721565246582],[2.110527276992798,44.51116108894348],[2.151120781898498,44.52753305435181]]]},"properties":{"bv2022":"12052","libbv2022":"Capdenac-Gare","nb_com":"8"}},
{"type":"Feature","geometry":{"type":"Polygon","coordinates":[[[2.389131307601929,44.364176750183105],[2.384017825126648,44.323144912719734],[2.343076944351196,44.28094220161438],[2.326691627502441,44.23307275772095],[2.361630201339722,44.203343152999885],[2.436817049980164,44.18720197677612],[2.508825302124023,44.259016275405884],[2.495930671691894,44.33016037940979],[2.409458994865418,44.36903190612793],[2.392086744308472,44.3658049106598],[2.389131307601929,44.364176750183105]]]},"properties":{"bv2022":"12056","libbv2022":"Baraqueville","nb_com":"7"}},
{"type":"Feature","geometry":{"type":"Polygon","coordinates":[[[2.152864336967468,44.6311161518097],[2.18181335926056,44.616281270980835],[2.152548909187317,44.57158589363098],[2.151120781898498,44.52753305435181],[2.201103925704956,44.53678274154663],[2.286024808883667,44.477272033691406],[2.322982192039491,44.46540641784669],[2.365896940231323,44.54301047325134],[2.36047339439392,44.58289670944213],[2.321274995803833,44.63283586502075],[2.332220196723938,44.664593458175666],[2.227138638496399,44.654104709625244],[2.152864336967468,44.6311161518097]]]},"properties":{"bv2022":"12089","libbv2022":"Decazeville","nb_com":"15"}},
{"type":"Feature","geometry":{"type":"Polygon","coordinates":[[[3.030708193778992,44.60074090957642],[2.961872458457948,44.65446591377258],[2.877014875411986,44.63114142417908],[2.818506121635437,44.59117031097413],[2.712322115898132,44.62372326850892],[2.701585292816163,44.656654357910156],[2.598206758499146,44.70265650749207],[2.634620904922485,44.757898807525635],[2.60954761505127,44.76917552947998],[2.552128434181212,44.731459617614746],[2.521888852119446,44.7049458026886],[2.534161329269409,44.64675807952881],[2.484168529510498,44.64152193069458],[2.506519198417664,44.59042501449585],[2.570059895515441,44.56825542449951],[2.612241744995117,44.53437328338623],[2.67094099521637,44.499985933303826],[2.646930575370789,44.45544123649597],[2.70047926902771,44.42072677612305],[2.754486083984375,44.43629837036132],[2.894307374954224,44.46495842933654],[2.931811451911926,44.51172685623168],[2.907376170158385,44.52940702438354],[3.030708193778992,44.60074090957642]]]},"properties":{"bv2022":"12096","libbv2022":"Espalion","nb_com":"21"}},
{"type":"Feature","geometry":{"type":"Polygon","coordinates":[[[3.059630513191223,44.581626415252686],[3.109617710113525,44.59672045707703],[3.144189119338988,44.654810667037964],[3.091632843017579,44.70989227294922],[3.101947903633118,44.766026496887214],[3.049957752227783,44.78188014030456],[2.958184599876404,44.780020236968994],[2.932820320129394,44.84935975074768],[2.859678745269775,44.874464273452766],[2.781315326690674,44.85769057273865],[2.776095747947693,44.90963888168335],[2.729621171951294,44.94386625289917],[2.719565629959106,44.99492812156678],[2.608406186103821,44.91499948501587],[2.585791826248169,44.83892822265625],[2.600122809410096,44.79366660118104],[2.564485788345337,44.77809214591981],[2.552128434181212,44.731459617614746],[2.60954761505127,44.76917552947998],[2.634620904922485,44.757898807525635],[2.598206758499146,44.70265650749207],[2.701585292816163,44.656654357910156],[2.712322115898132,44.62372326850892],[2.818506121635437,44.59117031097413],[2.877014875411986,44.63114142417908],[2.961872458457948,44.65446591377258],[3.030708193778992,44.60074090957642],[3.059630513191223,44.581626415252686]]]},"properties":{"bv2022":"12119","libbv2022":"Laguiole","nb_com":"32"}},
{"type":"Feature","geometry":{"type":"MultiPolygon","coordinates":[[[[2.904470205307007,44.32776236534118],[2.885341763496399,44.31169533729553],[2.876203536987305,44.20193409919739],[2.898288130760193,44.1953227519989],[2.930174469947814,44.24930000305176],[3.017856001853943,44.246160984039314],[3.007492899894714,44.27721643447876],[2.904470205307007,44.32776236534118]]],[[[2.904470205307007,44.32776236534118],[2.928311586380005,44.33600831031799],[2.968734741210938,44.40102815628052],[2.895489692687988,44.417168378829956],[2.894307374954224,44.46495842933654],[2.754486083984375,44.43629837036132],[2.765632748603821,44.4114146232605],[2.754595518112183,44.33581209182739],[2.885381698608398,44.34189462661743],[2.904470205307007,44.32776236534118]]]]},"properties":{"bv2022":"12120","libbv2022":"Laissac-Sévérac l'Église","nb_com":"6"}},
{"type":"Feature","geometry":{"type":"Polygon","coordinates":[[[2.495930671691894,44.33016037940979],[2.508825302124023,44.259016275405884],[2.436817049980164,44.18720197677612],[2.386764049530029,44.149264097213745],[2.435324549674988,44.10830974578858],[2.483668446540832,44.086334705352776],[2.562633156776428,44.12249231338502],[2.645041227340698,44.13372564315796],[2.666938543319702,44.16959071159363],[2.746721982955933,44.14157676696777],[2.790623784065247,44.102643728256226],[2.852428793907166,44.11611008644104],[2.898288130760193,44.1953227519989],[2.876203536987305,44.20193409919739],[2.885341763496399,44.31169533729553],[2.904470205307007,44.32776236534118],[2.885381698608398,44.34189462661743],[2.754595518112183,44.33581209182739],[2.711439967155456,44.34054136276245],[2.638806104660034,44.30478882789612],[2.495930671691894,44.33016037940979]]]},"properties":{"bv2022":"12133","libbv2022":"Luc-la-Primaube","nb_com":"21"}},
{"type":"Feature","geometry":{"type":"Polygon","coordinates":[[[2.332220196723938,44.664593458175666],[2.321274995803833,44.63283586502075],[2.36047339439392,44.58289670944213],[2.365896940231323,44.54301047325134],[2.322982192039491,44.46540641784669],[2.313449025154114,44.4420039653778],[2.398852705955505,44.39879751205444],[2.392086744308472,44.3658049106598],[2.409458994865418,44.36903190612793],[2.444807410240172,44.423137426376336],[2.48388135433197,44.40019202232361],[2.544435739517212,44.397578954696655],[2.597410798072815,44.458971977233894],[2.543780446052551,44.49763464927673],[2.612241744995117,44.53437328338623],[2.570059895515441,44.56825542449951],[2.506519198417664,44.59042501449585],[2.484168529510498,44.64152193069458],[2.435650825500488,44.639745473861694],[2.332220196723938,44.664593458175666]]]},"properties":{"bv2022":"12138","libbv2022":"Marcillac-Vallon","nb_com":"14"}},
{"type":"Feature","geometry":{"type":"Polygon","coordinates":[[[2.898288130760193,44.1953227519989],[2.852428793907166,44.11611008644104],[2.940984606742858,44.04114842414856],[3.0263671875,44.021838903427124],[3.045328855514526,43.97888445854188],[3.089597582817078,43.97829031944275],[3.092408180236816,43.93600773811341],[3.134045481681824,43.91650748252869],[3.147467970848084,43.84502649307251],[3.24903666973114,43.82957911491394],[3.242138981819153,43.87399744987487],[3.270017266273498,43.89750051498413],[3.342567563056946,43.894192934036255],[3.358359932899475,43.913833141326904],[3.35158383846283,43.93761420249939],[3.40560245513916,43.96968150138855],[3.450980782508851,44.02254152297974],[3.423864841461182,44.08295202255249],[3.530026435852051,44.08863639831544],[3.569987654685975,44.12232422828674],[3.534183502197266,44.1802716255188],[3.499390840530396,44.19210958480835],[3.469829559326172,44.282873392105095],[3.391198515892029,44.2859992980957],[3.34452474117279,44.274309158325195],[3.309073805809021,44.27022933959961],[3.23054027557373,44.230340003967285],[3.160531640052795,44.24627900123597],[3.128010630607605,44.2287609577179],[3.038467407226562,44.2658052444458],[3.017856001853943,44.246160984039314],[2.930174469947814,44.24930000305176],[2.898288130760193,44.1953227519989]]]},"properties":{"bv2022":"12145","libbv2022":"Millau","nb_com":"40"}},
{"type":"Feature","geometry":{"type":"Polygon","coordinates":[[[2.286024808883667,44.477272033691406],[2.201103925704956,44.53678274154663],[2.151120781898498,44.52753305435181],[2.110527276992798,44.51116108894348],[2.109884142875671,44.4721565246582],[2.104559898376465,44.455070495605476],[2.186018586158752,44.356443643569946],[2.235394477844238,44.387773275375366],[2.198325157165526,44.43282771110535],[2.287708282470703,44.43254184722901],[2.286024808883667,44.477272033691406]]]},"properties":{"bv2022":"12148","libbv2022":"Montbazens","nb_com":"11"}},
{"type":"Feature","geometry":{"type":"Polygon","coordinates":[[[2.20563793182373,44.17060470581055],[2.284879803657532,44.145334243774414],[2.357738256454469,44.10155487060547],[2.435324549674988,44.10830974578858],[2.386764049530029,44.149264097213745],[2.436817049980164,44.18720197677612],[2.361630201339722,44.203343152999885],[2.326691627502441,44.23307275772095],[2.343076944351196,44.28094220161438],[2.314722657203674,44.28814196586609],[2.275253415107727,44.20133018493652],[2.20563793182373,44.17060470581055]]]},"properties":{"bv2022":"12169","libbv2022":"Naucelle","nb_com":"8"}},
{"type":"Feature","geometry":{"type":"Polygon","coordinates":[[[2.574447512626648,43.912835359573364],[2.640433073043823,43.90787100791932],[2.663214445114136,43.92866063117981],[2.650251150131226,43.98980093002319],[2.706358671188354,43.985024690628045],[2.748984932899475,44.00836896896362],[2.716051578521728,44.06093883514404],[2.736557483673096,44.08814454078674],[2.790623784065247,44.102643728256226],[2.746721982955933,44.14157676696777],[2.666938543319702,44.16959071159363],[2.645041227340698,44.13372564315796],[2.562633156776428,44.12249231338502],[2.483668446540832,44.086334705352776],[2.435324549674988,44.10830974578858],[2.357738256454469,44.10155487060547],[2.380264759063721,44.06666398048401],[2.323340535163879,44.03526592254639],[2.327153205871582,43.99134969711304],[2.392363309860229,43.943617820739746],[2.497285962104797,43.97381401062012],[2.582720637321473,43.940829277038574],[2.574447512626648,43.912835359573364]]]},"properties":{"bv2022":"12197","libbv2022":"Réquista","nb_com":"28"}},
{"type":"Feature","geometry":{"type":"Polygon","coordinates":[[[2.186018586158752,44.356443643569946],[2.155078768730164,44.31592631340027],[2.180872678756714,44.27233695983887],[2.149201035499573,44.20054292678833],[2.20563793182373,44.17060470581055],[2.275253415107727,44.20133018493652],[2.314722657203674,44.28814196586609],[2.343076944351196,44.28094220161438],[2.384017825126648,44.323144912719734],[2.389131307601929,44.364176750183105],[2.331598043441772,44.384241342544556],[2.288447976112366,44.36771249771119],[2.235394477844238,44.387773275375366],[2.186018586158752,44.356443643569946]]]},"properties":{"bv2022":"12198","libbv2022":"Rieupeyroux","nb_com":"8"}},
{"type":"Feature","geometry":{"type":"Polygon","coordinates":[[[2.235394477844238,44.387773275375366],[2.288447976112366,44.36771249771119],[2.331598043441772,44.384241342544556],[2.389131307601929,44.364176750183105],[2.392086744308472,44.3658049106598],[2.398852705955505,44.39879751205444],[2.313449025154114,44.4420039653778],[2.322982192039491,44.46540641784669],[2.286024808883667,44.477272033691406],[2.287708282470703,44.43254184722901],[2.198325157165526,44.43282771110535],[2.235394477844238,44.387773275375366]]]},"properties":{"bv2022":"12199","libbv2022":"Rignac","nb_com":"5"}},
{"type":"Feature","geometry":{"type":"Polygon","coordinates":[[[2.495930671691894,44.33016037940979],[2.638806104660034,44.30478882789612],[2.711439967155456,44.34054136276245],[2.754595518112183,44.33581209182739],[2.765632748603821,44.4114146232605],[2.754486083984375,44.43629837036132],[2.70047926902771,44.42072677612305],[2.646930575370789,44.45544123649597],[2.67094099521637,44.499985933303826],[2.612241744995117,44.53437328338623],[2.543780446052551,44.49763464927673],[2.597410798072815,44.458971977233894],[2.544435739517212,44.397578954696655],[2.48388135433197,44.40019202232361],[2.444807410240172,44.423137426376336],[2.409458994865418,44.36903190612793],[2.495930671691894,44.33016037940979]]]},"properties":{"bv2022":"12202","libbv2022":"Rodez","nb_com":"12"}},
{"type":"Feature","geometry":{"type":"Polygon","coordinates":[[[2.790623784065247,44.102643728256226],[2.736557483673096,44.08814454078674],[2.716051578521728,44.06093883514404],[2.748984932899475,44.00836896896362],[2.706358671188354,43.985024690628045],[2.650251150131226,43.98980093002319],[2.663214445114136,43.92866063117981],[2.640433073043823,43.90787100791932],[2.574447512626648,43.912835359573364],[2.56180214881897,43.84597373008728],[2.497975945472717,43.83040928840637],[2.483209609985352,43.80407166481018],[2.533665299415587,43.77256965637207],[2.586241245269775,43.786829233169556],[2.65675413608551,43.76271367073059],[2.67760133743286,43.79568672180176],[2.781505227088927,43.787233114242554],[2.870687246322632,43.73972773551941],[2.9191392660141,43.732467174530036],[2.935449957847596,43.69466781616211],[2.98208785057068,43.708029270172126],[3.060678362846374,43.69280672073364],[3.048567295074463,43.80149769783021],[3.064907908439636,43.83556818962097],[3.150705099105835,43.813768863677986],[3.147467970848084,43.84502649307251],[3.134045481681824,43.91650748252869],[3.092408180236816,43.93600773811341],[3.089597582817078,43.97829031944275],[3.045328855514526,43.97888445854188],[3.0263671875,44.021838903427124],[2.940984606742858,44.04114842414856],[2.852428793907166,44.11611008644104],[2.790623784065247,44.102643728256226]]]},"properties":{"bv2022":"12208","libbv2022":"Saint-Affrique","nb_com":"44"}},
{"type":"Feature","geometry":{"type":"Polygon","coordinates":[[[3.059630513191223,44.581626415252686],[3.030708193778992,44.60074090957642],[2.907376170158385,44.52940702438354],[2.931811451911926,44.51172685623168],[2.894307374954224,44.46495842933654],[2.895489692687988,44.417168378829956],[2.968734741210938,44.40102815628052],[3.061245441436768,44.37473940849304],[3.047393918037415,44.46950912475586],[3.08346962928772,44.560320138931274],[3.059630513191223,44.581626415252686]]]},"properties":{"bv2022":"12224","libbv2022":"Saint Geniez d'Olt et d'Aubrac","nb_com":"8"}},
{"type":"Feature","geometry":{"type":"Polygon","coordinates":[[[3.34452474117279,44.274309158325195],[3.329688906669617,44.32765197753907],[3.238031029701232,44.383744239807136],[3.136692643165587,44.35662364959717],[3.061245441436768,44.37473940849304],[2.968734741210938,44.40102815628052],[2.928311586380005,44.33600831031799],[2.904470205307007,44.32776236534118],[3.007492899894714,44.27721643447876],[3.017856001853943,44.246160984039314],[3.038467407226562,44.2658052444458],[3.128010630607605,44.2287609577179],[3.160531640052795,44.24627900123597],[3.23054027557373,44.230340003967285],[3.309073805809021,44.27022933959961],[3.34452474117279,44.274309158325195]]]},"properties":{"bv2022":"12270","libbv2022":"Sévérac d'Aveyron","nb_com":"3"}},
{"type":"Feature","geometry":{"type":"Polygon","coordinates":[[[2.068833708763123,44.51332879066467],[1.991851687431335,44.5234739780426],[1.985648989677429,44.50169324874878],[1.899129152297974,44.44795298576355],[1.818523228168488,44.30691957473755],[1.833852827548981,44.24004459381103],[1.973979294300079,44.181391954422],[2.003780007362366,44.151160955429084],[2.149201035499573,44.20054292678833],[2.180872678756714,44.27233695983887],[2.155078768730164,44.31592631340027],[2.186018586158752,44.356443643569946],[2.104559898376465,44.455070495605476],[2.109884142875671,44.4721565246582],[2.068833708763123,44.51332879066467]]]},"properties":{"bv2022":"12300","libbv2022":"Villefranche-de-Rouergue","nb_com":"31"}},
{"type":"Feature","geometry":{"type":"Polygon","coordinates":[[[4.037656545639037,43.556336402893066],[4.1010422706604,43.554370403289795],[4.117400407791138,43.508124351501465],[4.163530826568605,43.4717378616333],[4.230283498764038,43.460185289382935],[4.244233131408692,43.50146126747131],[4.207849264144898,43.58890461921692],[4.074673891067505,43.58859467506409],[4.037656545639037,43.556336402893066]]]},"properties":{"bv2022":"30003","libbv2022":"Aigues-Mortes","nb_com":"3"}},
{"type":"Feature","geometry":{"type":"Polygon","coordinates":[[[4.260402679443359,43.71744513511658],[4.164312124252319,43.6928312778473],[4.193817615509033,43.65174603462219],[4.265277624130249,43.58929538726806],[4.248137474060059,43.62435531616212],[4.260697841644287,43.71672177314758],[4.260402679443359,43.71744513511658]]]},"properties":{"bv2022":"30006","libbv2022":"Aimargues","nb_com":"2"}},
{"type":"Feature","geometry":{"type":"Polygon","coordinates":[[[3.92727518081665,44.161298274993904],[4.013619661331178,44.08436512947083],[4.060667514801026,44.026529788970954],[4.154145956039429,44.015628576278694],[4.25798487663269,44.06263160705567],[4.314847946166993,44.09245228767395],[4.332528591156006,44.13544702529907],[4.319629430770874,44.1693959236145],[4.228796243667602,44.18283724784851],[4.130203008651733,44.22653889656067],[4.083581209182739,44.22312045097351],[4.03992772102356,44.163474559783936],[3.92727518081665,44.161298274993904]]]},"properties":{"bv2022":"30007","libbv2022":"Alès","nb_com":"34"}},
{"type":"Feature","geometry":{"type":"Polygon","coordinates":[[[4.102053642272948,43.935330390930176],[4.144982099533081,43.97480750083923],[4.154145956039429,44.015628576278694],[4.060667514801026,44.026529788970954],[4.013619661331178,44.08436512947083],[3.92727518081665,44.161298274993904],[3.911600589752196,44.16012454032899],[3.90665304660797,44.117220401763916],[3.93652606010437,44.10279297828674],[3.884929656982422,44.05327534675598],[3.895163774490356,44.01204204559326],[3.943516492843627,44.00154590606689],[3.92769205570221,43.96319532394409],[3.997154951095582,43.98353695869445],[4.102053642272948,43.935330390930176]]]},"properties":{"bv2022":"30010","libbv2022":"Anduze","nb_com":"20"}},
{"type":"Feature","geometry":{"type":"Polygon","coordinates":[[[4.673656940460205,44.21471071243286],[4.603148221969604,44.20775079727173],[4.504772186279298,44.24738669395447],[4.425693273544312,44.25185418128968],[4.389389514923096,44.20148301124573],[4.417546033859254,44.14433717727661],[4.444643020629882,44.12783312797546],[4.438702583312988,44.07781505584717],[4.494326114654541,44.05332374572754],[4.533181667327881,44.01063108444214],[4.630015850067139,44.01750421524048],[4.643931388854979,44.02073502540588],[4.675077438354492,44.0803964138031],[4.71972918510437,44.08558368682861],[4.706068277359009,44.10774493217468],[4.720946073532104,44.18814992904663],[4.673656940460205,44.21471071243286]]]},"properties":{"bv2022":"30028","libbv2022":"Bagnols-sur-Cèze","nb_com":"32"}},
{"type":"Feature","geometry":{"type":"Polygon","coordinates":[[[4.267140150070191,44.32483577728272],[4.288995265960693,44.292145013809204],[4.259905099868774,44.26449418067932],[4.348782062530518,44.2036452293396],[4.389389514923096,44.20148301124573],[4.425693273544312,44.25185418128968],[4.504772186279298,44.24738669395447],[4.464760780334473,44.341674566268914],[4.464017391204834,44.360501527786255],[4.365696668624878,44.371506452560425],[4.322140455245972,44.38700103759766],[4.294900178909301,44.364646911621094],[4.267140150070191,44.32483577728272]]]},"properties":{"bv2022":"30029","libbv2022":"Barjac","nb_com":"12"}},
{"type":"Feature","geometry":{"type":"Polygon","coordinates":[[[4.523527383804321,43.85995054244996],[4.527153730392457,43.787579774856574],[4.53279423713684,43.73010611534118],[4.679766893386842,43.728612661361694],[4.770318746566771,43.760209798812866],[4.728801250457764,43.879322290420525],[4.725290536880492,43.93081283569336],[4.646835803985596,43.91364312171937],[4.619662284851074,43.92798328399658],[4.60350751876831,43.901334762573235],[4.524246215820312,43.877581596374505],[4.523527383804321,43.85995054244996]]]},"properties":{"bv2022":"30032","libbv2022":"Beaucaire","nb_com":"12"}},
{"type":"Feature","geometry":{"type":"Polygon","coordinates":[[[4.441413879394531,43.74602389335633],[4.463929891586304,43.709012269973755],[4.53279423713684,43.73010611534118],[4.527153730392457,43.787579774856574],[4.471036195755004,43.77698397636413],[4.441413879394531,43.74602389335633]]]},"properties":{"bv2022":"30034","libbv2022":"Bellegarde","nb_com":"1"}},
{"type":"Feature","geometry":{"type":"Polygon","coordinates":[[[4.060013294219972,44.274967432022095],[4.124751567840577,44.255942106246955],[4.141664505004882,44.3239586353302],[4.126739501953125,44.33773326873779],[4.089943170547485,44.373276710510254],[4.053664684295655,44.35879373550415],[4.060013294219972,44.274967432022095]]]},"properties":{"bv2022":"30037","libbv2022":"Bessèges","nb_com":"6"}},
{"type":"Feature","geometry":{"type":"Polygon","coordinates":[[[4.417430400848389,43.77419376373291],[4.441413879394531,43.74602389335633],[4.471036195755004,43.77698397636413],[4.452712535858154,43.8194682598114],[4.398091554641724,43.81331586837768],[4.417430400848389,43.77419376373291]]]},"properties":{"bv2022":"30047","libbv2022":"Bouillargues","nb_com":"2"}},
{"type":"Feature","geometry":{"type":"Polygon","coordinates":[[[4.25621771812439,43.89601731300353],[4.331749200820923,43.89618420600891],[4.409029245376588,43.93285655975342],[4.275836944580078,43.986428022384644],[4.254884719848633,43.9820613861084],[4.25621771812439,43.89601731300353]]]},"properties":{"bv2022":"30061","libbv2022":"La Calmette","nb_com":"4"}},
{"type":"Feature","geometry":{"type":"Polygon","coordinates":[[[4.24130368232727,43.758468866348274],[4.255970478057861,43.7840576171875],[4.157694339752197,43.82070469856262],[4.122516870498657,43.73712420463561],[4.145037174224854,43.73244380950928],[4.171885013580322,43.75740170478821],[4.24130368232727,43.758468866348274]]]},"properties":{"bv2022":"30062","libbv2022":"Calvisson","nb_com":"6"}},
{"type":"Feature","geometry":{"type":"Polygon","coordinates":[[[3.888682723045348,44.39296436309815],[3.860780477523804,44.38359785079956],[3.819024801254272,44.30344796180725],[3.780906200408936,44.264379024505615],[3.805487275123596,44.234640121459954],[3.877636432647706,44.22468090057373],[3.911600589752196,44.16012454032899],[3.92727518081665,44.161298274993904],[4.03992772102356,44.163474559783936],[4.083581209182739,44.22312045097351],[4.060013294219972,44.274967432022095],[4.053664684295655,44.35879373550415],[3.971718549728394,44.42638182640076],[3.945338726043702,44.400864124298096],[3.888682723045348,44.39296436309815]]]},"properties":{"bv2022":"30132","libbv2022":"La Grand-Combe","nb_com":"24"}},
{"type":"Feature","geometry":{"type":"Polygon","coordinates":[[[4.523527383804321,43.85995054244996],[4.452712535858154,43.8194682598114],[4.471036195755004,43.77698397636413],[4.527153730392457,43.787579774856574],[4.523527383804321,43.85995054244996]]]},"properties":{"bv2022":"30155","libbv2022":"Manduel","nb_com":"2"}},
{"type":"Feature","geometry":{"type":"Polygon","coordinates":[[[4.157694339752197,43.82070469856262],[4.255970478057861,43.7840576171875],[4.24130368232727,43.758468866348274],[4.260402679443359,43.71744513511658],[4.260697841644287,43.71672177314758],[4.316503524780273,43.73974800109863],[4.339725255966187,43.680238485336304],[4.385648727416992,43.69686174392701],[4.382623672485352,43.728263854980476],[4.417430400848389,43.77419376373291],[4.398091554641724,43.81331586837768],[4.452712535858154,43.8194682598114],[4.523527383804321,43.85995054244996],[4.524246215820312,43.877581596374505],[4.488115787506104,43.9183874130249],[4.409029245376588,43.93285655975342],[4.331749200820923,43.89618420600891],[4.25621771812439,43.89601731300353],[4.186129808425903,43.858235120773315],[4.157694339752197,43.82070469856262]]]},"properties":{"bv2022":"30189","libbv2022":"Nîmes","nb_com":"18"}},
{"type":"Feature","geometry":{"type":"Polygon","coordinates":[[[4.504772186279298,44.24738669395447],[4.603148221969604,44.20775079727173],[4.673656940460205,44.21471071243286],[4.653181791305543,44.294806718826294],[4.577852487564087,44.30905842781067],[4.512014150619506,44.33539962768555],[4.464760780334473,44.341674566268914],[4.504772186279298,44.24738669395447]]]},"properties":{"bv2022":"30202","libbv2022":"Pont-Saint-Esprit","nb_com":"12"}},
{"type":"Feature","geometry":{"type":"Polygon","coordinates":[[[4.102053642272948,43.935330390930176],[3.997154951095582,43.98353695869445],[3.92769205570221,43.96319532394409],[3.932587623596191,43.89451885223389],[3.958292245864868,43.882910251617425],[3.974348783493042,43.80147361755372],[4.008370876312256,43.817723512649536],[4.112268924713135,43.92261815071107],[4.102053642272948,43.935330390930176]]]},"properties":{"bv2022":"30210","libbv2022":"Quissac","nb_com":"12"}},
{"type":"Feature","geometry":{"type":"Polygon","coordinates":[[[4.533181667327881,44.01063108444214],[4.477847814559937,43.99452447891236],[4.500068187713622,43.96615529060364],[4.488115787506104,43.9183874130249],[4.524246215820312,43.877581596374505],[4.60350751876831,43.901334762573235],[4.619662284851074,43.92798328399658],[4.630015850067139,44.01750421524048],[4.533181667327881,44.01063108444214]]]},"properties":{"bv2022":"30212","libbv2022":"Remoulins","nb_com":"10"}},
{"type":"Feature","geometry":{"type":"Polygon","coordinates":[[[4.619662284851074,43.92798328399658],[4.646835803985596,43.91364312171937],[4.725290536880492,43.93081283569336],[4.738476514816284,44.013197183609016],[4.643931388854979,44.02073502540588],[4.630015850067139,44.01750421524048],[4.619662284851074,43.92798328399658]]]},"properties":{"bv2022":"30217","libbv2022":"Rochefort-du-Gard","nb_com":"5"}},
{"type":"Feature","geometry":{"type":"Polygon","coordinates":[[[4.71972918510437,44.08558368682861],[4.675077438354492,44.0803964138031],[4.643931388854979,44.02073502540588],[4.738476514816284,44.013197183609016],[4.801134824752809,43.99434971809387],[4.84438157081604,44.002837896347046],[4.787977933883667,44.06506299972534],[4.71972918510437,44.08558368682861]]]},"properties":{"bv2022":"30221","libbv2022":"Roquemaure","nb_com":"6"}},
{"type":"Feature","geometry":{"type":"Polygon","coordinates":[[[4.126739501953125,44.33773326873779],[4.141664505004882,44.3239586353302],[4.124751567840577,44.255942106246955],[4.060013294219972,44.274967432022095],[4.083581209182739,44.22312045097351],[4.130203008651733,44.22653889656067],[4.228796243667602,44.18283724784851],[4.319629430770874,44.1693959236145],[4.348782062530518,44.2036452293396],[4.259905099868774,44.26449418067932],[4.288995265960693,44.292145013809204],[4.267140150070191,44.32483577728272],[4.126739501953125,44.33773326873779]]]},"properties":{"bv2022":"30227","libbv2022":"Saint-Ambroix","nb_com":"20"}},
{"type":"Feature","geometry":{"type":"Polygon","coordinates":[[[4.186129808425903,43.858235120773315],[4.25621771812439,43.89601731300353],[4.254884719848633,43.9820613861084],[4.275836944580078,43.986428022384644],[4.25798487663269,44.06263160705567],[4.154145956039429,44.015628576278694],[4.144982099533081,43.97480750083923],[4.102053642272948,43.935330390930176],[4.112268924713135,43.92261815071107],[4.186129808425903,43.858235120773315]]]},"properties":{"bv2022":"30255","libbv2022":"Saint-Geniès-de-Malgoirès","nb_com":"22"}},
{"type":"Feature","geometry":{"type":"Polygon","coordinates":[[[4.339725255966187,43.680238485336304],[4.366884708404541,43.5732524394989],[4.353637456893921,43.54739403724671],[4.425405263900757,43.584774017333984],[4.426920652389527,43.6258351802826],[4.463929891586304,43.709012269973755],[4.441413879394531,43.74602389335633],[4.417430400848389,43.77419376373291],[4.382623672485352,43.728263854980476],[4.385648727416992,43.69686174392701],[4.339725255966187,43.680238485336304]]]},"properties":{"bv2022":"30258","libbv2022":"Saint-Gilles","nb_com":"1"}},
{"type":"Feature","geometry":{"type":"Polygon","coordinates":[[[3.753677725791931,44.06667876243591],[3.761815905570984,44.06381416320801],[3.771355152130127,44.04922032356262],[3.782331228256227,44.04344511032105],[3.795517563819884,43.94227695465088],[3.828286767005919,43.924060106277466],[3.799542188644409,43.89082169532775],[3.805468082427979,43.878592014312744],[3.822361707687378,43.87408328056335],[3.830797433853149,43.86642336845398],[3.838692784309388,43.87046694755554],[3.848097085952758,43.86872053146362],[3.857451081275939,43.87617111206055],[3.900778651237488,43.87885499000549],[3.932587623596191,43.89451885223389],[3.92769205570221,43.96319532394409],[3.943516492843627,44.00154590606689],[3.895163774490356,44.01204204559326],[3.884929656982422,44.05327534675598],[3.82281506061554,44.0903754234314],[3.754174113273621,44.07400155067444],[3.753677725791931,44.06667876243591]]]},"properties":{"bv2022":"30263","libbv2022":"Saint-Hippolyte-du-Fort","nb_com":"12"}},
{"type":"Feature","geometry":{"type":"Polygon","coordinates":[[[3.780906200408936,44.264379024505615],[3.670464277267456,44.23076772689819],[3.63770568370819,44.175434589385986],[3.632837772369385,44.121222734451294],[3.754174113273621,44.07400155067444],[3.82281506061554,44.0903754234314],[3.884929656982422,44.05327534675598],[3.93652606010437,44.10279297828674],[3.90665304660797,44.117220401763916],[3.911600589752196,44.16012454032899],[3.877636432647706,44.22468090057373],[3.805487275123596,44.234640121459954],[3.780906200408936,44.264379024505615]]]},"properties":{"bv2022":"30269","libbv2022":"Saint-Jean-du-Gard","nb_com":"14"}},
{"type":"Feature","geometry":{"type":"Polygon","coordinates":[[[4.112268924713135,43.92261815071107],[4.008370876312256,43.817723512649536],[3.974348783493042,43.80147361755372],[3.985214471817017,43.7671959400177],[4.05600118637085,43.73846435546875],[4.06451678276062,43.69776797294617],[4.110740184783937,43.70210289955139],[4.122516870498657,43.73712420463561],[4.157694339752197,43.82070469856262],[4.186129808425903,43.858235120773315],[4.112268924713135,43.92261815071107]]]},"properties":{"bv2022":"30321","libbv2022":"Sommières","nb_com":"25"}},
{"type":"Feature","geometry":{"type":"Polygon","coordinates":[[[4.275836944580078,43.986428022384644],[4.409029245376588,43.93285655975342],[4.488115787506104,43.9183874130249],[4.500068187713622,43.96615529060364],[4.477847814559937,43.99452447891236],[4.533181667327881,44.01063108444214],[4.494326114654541,44.05332374572754],[4.438702583312988,44.07781505584717],[4.444643020629882,44.12783312797546],[4.417546033859254,44.14433717727661],[4.389389514923096,44.20148301124573],[4.348782062530518,44.2036452293396],[4.319629430770874,44.1693959236145],[4.332528591156006,44.13544702529907],[4.314847946166993,44.09245228767395],[4.25798487663269,44.06263160705567],[4.275836944580078,43.986428022384644]]]},"properties":{"bv2022":"30334","libbv2022":"Uzès","nb_com":"26"}},
{"type":"Feature","geometry":{"type":"Polygon","coordinates":[[[4.260697841644287,43.71672177314758],[4.248137474060059,43.62435531616212],[4.265277624130249,43.58929538726806],[4.318520784378052,43.55731940269471],[4.353637456893921,43.54739403724671],[4.366884708404541,43.5732524394989],[4.339725255966187,43.680238485336304],[4.316503524780273,43.73974800109863],[4.260697841644287,43.71672177314758]]]},"properties":{"bv2022":"30341","libbv2022":"Vauvert","nb_com":"2"}},
{"type":"Feature","geometry":{"type":"Polygon","coordinates":[[[4.164312124252319,43.6928312778473],[4.260402679443359,43.71744513511658],[4.24130368232727,43.758468866348274],[4.171885013580322,43.75740170478821],[4.145037174224854,43.73244380950928],[4.164312124252319,43.6928312778473]]]},"properties":{"bv2022":"30344","libbv2022":"Vergèze","nb_com":"5"}},
{"type":"Feature","geometry":{"type":"Polygon","coordinates":[[[3.569987654685975,44.12232422828674],[3.530026435852051,44.08863639831544],[3.423864841461182,44.08295202255249],[3.450980782508851,44.02254152297974],[3.40560245513916,43.96968150138855],[3.35158383846283,43.93761420249939],[3.358359932899475,43.913833141326904],[3.424448490142822,43.91159796714782],[3.460746765136719,43.871313810348504],[3.578435659408569,43.84366512298583],[3.585466742515564,43.84776711463928],[3.59916365146637,43.84965419769287],[3.599870085716249,43.85297203063965],[3.576818466186523,43.864452600479126],[3.58294641971588,43.87746047973633],[3.630767941474915,43.93458557128906],[3.667705059051515,43.94618368148804],[3.6757310628891,44.00748801231384],[3.702484250068665,44.016058921813965],[3.713450908660889,44.022377490997314],[3.724798917770386,44.03288769721985],[3.722679257392884,44.035953044891365],[3.731023669242859,44.05523014068604],[3.753677725791931,44.06667876243591],[3.754174113273621,44.07400155067444],[3.632837772369385,44.121222734451294],[3.569987654685975,44.12232422828674]]]},"properties":{"bv2022":"30350","libbv2022":"Le Vigan","nb_com":"23"}},
{"type":"Feature","geometry":{"type":"Polygon","coordinates":[[[3.428964614868165,43.29021453857422],[3.507720351219177,43.27245783805848],[3.539809465408326,43.30201506614685],[3.493217706680297,43.35291242599487],[3.439030289649963,43.3280200958252],[3.428964614868165,43.29021453857422]]]},"properties":{"bv2022":"34003","libbv2022":"Agde","nb_com":"1"}},
{"type":"Feature","geometry":{"type":"Polygon","coordinates":[[[4.007273435592651,43.643303632736206],[4.047548532485962,43.62317085266113],[4.035512447357178,43.67961812019348],[3.990493178367617,43.66183257102966],[4.007273435592651,43.643303632736206]]]},"properties":{"bv2022":"34022","libbv2022":"Baillargues","nb_com":"3"}},
{"type":"Feature","geometry":{"type":"Polygon","coordinates":[[[3.290819048881531,43.59290862083435],[3.26994514465332,43.655866622924805],[3.237665057182312,43.77032089233398],[3.186640501022339,43.77824831008911],[3.150705099105835,43.813768863677986],[3.064907908439636,43.83556818962097],[3.048567295074463,43.80149769783021],[3.060678362846374,43.69280672073364],[2.98208785057068,43.708029270172126],[2.935449957847596,43.69466781616211],[2.907488703727723,43.654416561126716],[2.940987467765809,43.653180122375495],[2.950136065483093,43.59250450134277],[3.008071184158325,43.59653687477112],[3.065654397010802,43.61978530883789],[3.129093408584595,43.57127642631531],[3.172268629074097,43.53398609161378],[3.233773708343507,43.52621364593506],[3.290819048881531,43.59290862083435]]]},"properties":{"bv2022":"34028","libbv2022":"Bédarieux","nb_com":"25"}},
{"type":"Feature","geometry":{"type":"Polygon","coordinates":[[[3.518341541290284,43.42682695388795],[3.347254157066345,43.410399436950684],[3.331595301628113,43.3783941268921],[3.345884680747986,43.33231639862061],[3.439030289649963,43.3280200958252],[3.493217706680297,43.35291242599487],[3.550041675567627,43.40628480911255],[3.525641560554504,43.43008494377137],[3.518341541290284,43.42682695388795]]]},"properties":{"bv2022":"34031","libbv2022":"Bessan","nb_com":"6"}},
{"type":"Feature","geometry":{"type":"Polygon","coordinates":[[[3.345884680747986,43.33231639862061],[3.331595301628113,43.3783941268921],[3.2626633644104,43.397295475006096],[3.239094853401184,43.43210363388062],[3.165382385253906,43.45323038101196],[3.156239748001099,43.48314094543457],[3.09223473072052,43.5289192199707],[3.087257623672485,43.557209968566895],[3.006749868392944,43.51712679862977],[2.930953860282898,43.515286922454834],[3.010657548904419,43.45440030097962],[2.977449417114258,43.3924834728241],[3.025960922241211,43.350831508636475],[3.072871446609498,43.354021072387695],[3.11127245426178,43.30223560333252],[3.054346323013307,43.28004121780396],[3.14651882648468,43.247158765792854],[3.193216562271119,43.25040435791016],[3.19115161895752,43.299343824386604],[3.244009971618652,43.31586194038391],[3.330645442008972,43.29240441322327],[3.343542098999023,43.27030682563782],[3.364785194396973,43.27737045288086],[3.345884680747986,43.33231639862061]]]},"properties":{"bv2022":"34032","libbv2022":"Béziers","nb_com":"27"}},
{"type":"Feature","geometry":{"type":"Polygon","coordinates":[[[3.025960922241211,43.350831508636475],[3.004765629768372,43.287782192230225],[3.054346323013307,43.28004121780396],[3.11127245426178,43.30223560333252],[3.072871446609498,43.354021072387695],[3.025960922241211,43.350831508636475]]]},"properties":{"bv2022":"34052","libbv2022":"Capestang","nb_com":"3"}},
{"type":"Feature","geometry":{"type":"Polygon","coordinates":[[[4.06451678276062,43.69776797294617],[4.05600118637085,43.73846435546875],[3.985214471817017,43.7671959400177],[3.900758981704712,43.749074220657356],[3.945227861404418,43.74015712738037],[3.942264318466186,43.69358587265015],[3.990493178367617,43.66183257102966],[4.035512447357178,43.67961812019348],[4.06451678276062,43.69776797294617]]]},"properties":{"bv2022":"34058","libbv2022":"Castries","nb_com":"8"}},
{"type":"Feature","geometry":{"type":"Polygon","coordinates":[[[3.54043173789978,43.549925804138184],[3.597092509269714,43.577603340148926],[3.494491815567017,43.617771863937385],[3.43736732006073,43.67073655128479],[3.330549359321594,43.6540801525116],[3.26994514465332,43.655866622924805],[3.290819048881531,43.59290862083435],[3.350869536399841,43.54804062843323],[3.420784831047058,43.57347106933594],[3.54043173789978,43.549925804138184]]]},"properties":{"bv2022":"34079","libbv2022":"Clermont-l'Hérault","nb_com":"19"}},
{"type":"Feature","geometry":{"type":"Polygon","coordinates":[[[3.59987,43.852972],[3.599164,43.849654],[3.585467,43.847767],[3.578436,43.843665],[3.574618,43.837359],[3.563007,43.831228],[3.547125,43.801899],[3.538982,43.790925],[3.545535,43.787536],[3.552775,43.791342],[3.561442,43.789642],[3.569275,43.792804],[3.58922,43.775267],[3.583349,43.756114],[3.593339,43.749734],[3.612394,43.742717],[3.622097,43.752705],[3.62482,43.758826],[3.642514,43.770008],[3.650121,43.782634],[3.666315,43.788835],[3.676809,43.782201],[3.674846,43.775887],[3.678137,43.769639],[3.685718,43.765929],[3.669371,43.753793],[3.674641,43.74801],[3.674493,43.737599],[3.66459,43.722569],[3.697719,43.709412],[3.702023,43.710366],[3.703923,43.713494],[3.706243,43.72363],[3.715324,43.725468],[3.714203,43.732045],[3.719129,43.737935],[3.740229,43.721649],[3.774479,43.744934],[3.790962,43.748442],[3.808154,43.744869],[3.81571,43.747252],[3.816092,43.753998],[3.823092,43.758148],[3.819514,43.777946],[3.811346,43.779104],[3.813602,43.784928],[3.806452,43.787897],[3.815811,43.792642],[3.837986,43.827347],[3.835418,43.839588],[3.842964,43.850455],[3.843035,43.857007],[3.824612,43.853841],[3.805729,43.855821],[3.788563,43.852355],[3.775174,43.857307],[3.675611,43.861762],[3.656042,43.87686],[3.609694,43.854336],[3.59987,43.852972]]]},"properties":{"bv2022":"34112","libbv2022":"Saint-Martin-de-Londres","nb_com":"26"}},
{"type":"Feature","geometry":{"type":"Polygon","coordinates":[[[3.59987,43.852972],[3.609694,43.854336],[3.656042,43.87686],[3.675611,43.861762],[3.775174,43.857307],[3.788563,43.852355],[3.805729,43.855821],[3.824612,43.853841],[3.843035,43.857007],[3.830797,43.866423],[3.822362,43.874083],[3.805468,43.878592],[3.799542,43.890822],[3.782331,44.043445],[3.771355,44.04922],[3.761816,44.063814],[3.753678,44.066679],[3.731024,44.05523],[3.722679,44.035953],[3.724799,44.032888],[3.713451,44.022377],[3.702484,44.016059],[3.675731,44.007488],[3.667705,43.946184],[3.630768,43.934586],[3.582946,43.87746],[3.576818,43.864453],[3.59987,43.852972]]]},"properties":{"bv2022":"34111","libbv2022":"Ganges","nb_com":"26"}},
{"type":"Feature","geometry":{"type":"Polygon","coordinates":[[[3.54043173789978,43.549925804138184],[3.605974078178406,43.530208587646484],[3.623026609420776,43.52795195579529],[3.656848192214967,43.569159507751465],[3.669961214065552,43.596280574798584],[3.617582559585572,43.62308073043823],[3.624093770980835,43.695561170578],[3.654788613319397,43.71617627143859],[3.622097015380859,43.75270462036133],[3.612393736839295,43.742717027664185],[3.59333884716034,43.74973368644715],[3.583348751068115,43.7561137676239],[3.538982152938843,43.79092454910278],[3.494791507720947,43.74881291389465],[3.547608852386475,43.6746826171875],[3.494491815567017,43.617771863937385],[3.597092509269714,43.577603340148926],[3.54043173789978,43.549925804138184]]]},"properties":{"bv2022":"34114","libbv2022":"Gignac","nb_com":"9"}},
{"type":"Feature","geometry":{"type":"Polygon","coordinates":[[[3.129093408584595,43.57127642631531],[3.065654397010802,43.61978530883789],[3.008071184158325,43.59653687477112],[2.950136065483093,43.59250450134277],[2.940987467765809,43.653180122375495],[2.907488703727723,43.654416561126716],[2.828424096107482,43.63743162155152],[2.836161851882935,43.56970953941345],[2.909449338912964,43.511618614196784],[2.930953860282898,43.515286922454834],[3.006749868392944,43.51712679862977],[3.087257623672485,43.557209968566895],[3.129093408584595,43.57127642631531]]]},"properties":{"bv2022":"34126","libbv2022":"Lamalou-les-Bains","nb_com":"12"}},
{"type":"Feature","geometry":{"type":"Polygon","coordinates":[[[3.578435659408569,43.84366512298583],[3.460746765136719,43.871313810348504],[3.424448490142822,43.91159796714782],[3.358359932899475,43.913833141326904],[3.342567563056946,43.894192934036255],[3.270017266273498,43.89750051498413],[3.242138981819153,43.87399744987487],[3.24903666973114,43.82957911491394],[3.147467970848084,43.84502649307251],[3.150705099105835,43.813768863677986],[3.186640501022339,43.77824831008911],[3.237665057182312,43.77032089233398],[3.26994514465332,43.655866622924805],[3.330549359321594,43.6540801525116],[3.43736732006073,43.67073655128479],[3.461875557899476,43.73860049247742],[3.494791507720947,43.74881291389465],[3.538982152938843,43.79092454910278],[3.547125458717347,43.80189895629883],[3.568114519119263,43.81474161148071],[3.563007473945618,43.83122754096985],[3.574618101119995,43.837358713150024],[3.578435659408569,43.84366512298583]]]},"properties":{"bv2022":"34142","libbv2022":"Lodève","nb_com":"30"}},
{"type":"Feature","geometry":{"type":"Polygon","coordinates":[[[4.035512447357178,43.67961812019348],[4.047548532485962,43.62317085266113],[4.074673891067505,43.58859467506409],[4.207849264144898,43.58890461921692],[4.244233131408692,43.50146126747131],[4.320894241333007,43.52763199806214],[4.318520784378052,43.55731940269471],[4.265277624130249,43.58929538726806],[4.193817615509033,43.65174603462219],[4.164312124252319,43.6928312778473],[4.145037174224854,43.73244380950928],[4.122516870498657,43.73712420463561],[4.110740184783937,43.70210289955139],[4.06451678276062,43.69776797294617],[4.035512447357178,43.67961812019348]]]},"properties":{"bv2022":"34145","libbv2022":"Lunel","nb_com":"11"}},
{"type":"Feature","geometry":{"type":"Polygon","coordinates":[[[3.087257623672485,43.557209968566895],[3.09223473072052,43.5289192199707],[3.156239748001099,43.48314094543457],[3.165382385253906,43.45323038101196],[3.239094853401184,43.43210363388062],[3.268030643463136,43.45841383934021],[3.233773708343507,43.52621364593506],[3.172268629074097,43.53398609161378],[3.129093408584595,43.57127642631531],[3.087257623672485,43.557209968566895]]]},"properties":{"bv2022":"34147","libbv2022":"Magalas","nb_com":"6"}},
{"type":"Feature","geometry":{"type":"Polygon","coordinates":[[[3.493217706680297,43.35291242599487],[3.539809465408326,43.30201506614685],[3.566689372062684,43.32615780830383],[3.593957781791687,43.389462471008294],[3.550041675567627,43.40628480911255],[3.493217706680297,43.35291242599487]]]},"properties":{"bv2022":"34150","libbv2022":"Marseillan","nb_com":"1"}},
{"type":"Feature","geometry":{"type":"Polygon","coordinates":[[[4.007273435592651,43.643303632736206],[3.939357876777649,43.6139018535614],[3.932410359382629,43.587955951690674],[3.969997406005858,43.54719877243042],[3.969385743141174,43.54023027420044],[4.037656545639037,43.556336402893066],[4.074673891067505,43.58859467506409],[4.047548532485962,43.62317085266113],[4.007273435592651,43.643303632736206]]]},"properties":{"bv2022":"34154","libbv2022":"Mauguio","nb_com":"1"}},
{"type":"Feature","geometry":{"type":"Polygon","coordinates":[[[3.550041675567627,43.40628480911255],[3.593957781791687,43.389462471008294],[3.66176450252533,43.42451667785644],[3.625979542732239,43.48682641983032],[3.623026609420776,43.52795195579529],[3.605974078178406,43.530208587646484],[3.548855781555175,43.49424409866333],[3.567638516426086,43.475226163864136],[3.525641560554504,43.43008494377137],[3.550041675567627,43.40628480911255]]]},"properties":{"bv2022":"34157","libbv2022":"Mèze","nb_com":"3"}},
{"type":"Feature","geometry":{"type":"Polygon","coordinates":[[[3.465124249458313,43.4815719127655],[3.518341541290284,43.42682695388795],[3.525641560554504,43.43008494377137],[3.567638516426086,43.475226163864136],[3.548855781555175,43.49424409866333],[3.470535635948181,43.51481938362121],[3.465124249458313,43.4815719127655]]]},"properties":{"bv2022":"34162","libbv2022":"Montagnac","nb_com":"2"}},
{"type":"Feature","geometry":{"type":"Polygon","coordinates":[[[3.900758981704712,43.749074220657356],[3.838869571685791,43.72238230705261],[3.815710067749023,43.747251987457275],[3.808153867721558,43.74486899375916],[3.790961742401122,43.74844217300414],[3.774478912353516,43.74493384361268],[3.740228652954102,43.72164869308472],[3.719128847122192,43.737934589385986],[3.715324401855469,43.7254683971405],[3.706243395805358,43.72362971305847],[3.703922510147095,43.71349382400513],[3.702023386955261,43.71036553382873],[3.697718739509582,43.7094120979309],[3.664589762687683,43.72256875038147],[3.674493432044984,43.73759937286378],[3.674641370773315,43.74800968170166],[3.669371008872986,43.753792762756355],[3.682879567146301,43.763256549835205],[3.685718059539796,43.765928983688354],[3.676809072494507,43.782200813293464],[3.666315317153932,43.788835048675544],[3.656970739364624,43.78749704360962],[3.650120735168457,43.782634019851685],[3.642513871192933,43.770008087158196],[3.624820351600647,43.75882649421692],[3.622097015380859,43.75270462036133],[3.654788613319397,43.71617627143859],[3.624093770980835,43.695561170578],[3.617582559585572,43.62308073043823],[3.669961214065552,43.596280574798584],[3.736950278282166,43.626944541931145],[3.791697263717651,43.59246516227722],[3.72298800945282,43.51966643333435],[3.753492712974547,43.493528842926025],[3.818488478660585,43.50926208496094],[3.830539345741271,43.47060751914977],[3.907955646514893,43.517197132110596],[3.969997406005858,43.54719877243042],[3.932410359382629,43.587955951690674],[3.939357876777649,43.6139018535614],[4.007273435592651,43.643303632736206],[3.990493178367617,43.66183257102966],[3.942264318466186,43.69358587265015],[3.945227861404418,43.74015712738037],[3.900758981704712,43.749074220657356]]]},"properties":{"bv2022":"34172","libbv2022":"Montpellier","nb_com":"33"}},
{"type":"Feature","geometry":{"type":"Polygon","coordinates":[[[2.565786957740784,43.42295956611633],[2.53991687297821,43.345627546310425],[2.534032344818115,43.25023865699768],[2.567280054092407,43.22941732406617],[2.650675654411316,43.210712432861335],[2.761166930198669,43.24415159225464],[2.786968350410461,43.27443051338196],[2.759482264518738,43.379417657852166],[2.64612102508545,43.3859076499939],[2.60219144821167,43.43133091926575],[2.565786957740784,43.42295956611633]]]},"properties":{"bv2022":"34189","libbv2022":"Olonzac","nb_com":"22"}},
{"type":"Feature","geometry":{"type":"Polygon","coordinates":[[[3.907955646514893,43.517197132110596],[3.969385743141174,43.54023027420044],[3.969997406005858,43.54719877243042],[3.907955646514893,43.517197132110596]]]},"properties":{"bv2022":"34192","libbv2022":"Palavas-les-Flots","nb_com":"1"}},
{"type":"Feature","geometry":{"type":"Polygon","coordinates":[[[3.54043173789978,43.549925804138184],[3.420784831047058,43.57347106933594],[3.350869536399841,43.54804062843323],[3.415966749191284,43.499369621276855],[3.465124249458313,43.4815719127655],[3.470535635948181,43.51481938362121],[3.548855781555175,43.49424409866333],[3.605974078178406,43.530208587646484],[3.54043173789978,43.549925804138184]]]},"properties":{"bv2022":"34194","libbv2022":"Paulhan","nb_com":"12"}},
{"type":"Feature","geometry":{"type":"Polygon","coordinates":[[[3.465124249458313,43.4815719127655],[3.415966749191284,43.499369621276855],[3.350869536399841,43.54804062843323],[3.290819048881531,43.59290862083435],[3.233773708343507,43.52621364593506],[3.268030643463136,43.45841383934021],[3.334685683250427,43.44978141784667],[3.347254157066345,43.410399436950684],[3.518341541290284,43.42682695388795],[3.465124249458313,43.4815719127655]]]},"properties":{"bv2022":"34199","libbv2022":"Pézenas","nb_com":"16"}},
{"type":"Feature","geometry":{"type":"Polygon","coordinates":[[[3.656848192214967,43.569159507751465],[3.72298800945282,43.51966643333435],[3.791697263717651,43.59246516227722],[3.736950278282166,43.626944541931145],[3.669961214065552,43.596280574798584],[3.656848192214967,43.569159507751465]]]},"properties":{"bv2022":"34202","libbv2022":"Pignan","nb_com":"5"}},
{"type":"Feature","geometry":{"type":"Polygon","coordinates":[[[3.43736732006073,43.67073655128479],[3.494491815567017,43.617771863937385],[3.547608852386475,43.6746826171875],[3.494791507720947,43.74881291389465],[3.461875557899476,43.73860049247742],[3.43736732006073,43.67073655128479]]]},"properties":{"bv2022":"34239","libbv2022":"Saint-André-de-Sangonis","nb_com":"8"}},
{"type":"Feature","geometry":{"type":"Polygon","coordinates":[[[2.776667237281799,43.438822269439704],[2.855173468589783,43.40618109703064],[2.900679469108582,43.36443567276],[2.977449417114258,43.3924834728241],[3.010657548904419,43.45440030097962],[2.930953860282898,43.515286922454834],[2.909449338912964,43.511618614196784],[2.825714230537415,43.477319240570075],[2.776667237281799,43.438822269439704]]]},"properties":{"bv2022":"34245","libbv2022":"Saint-Chinian","nb_com":"10"}},
{"type":"Feature","geometry":{"type":"Polygon","coordinates":[[[3.815710067749023,43.747251987457275],[3.838869571685791,43.72238230705261],[3.900758981704712,43.749074220657356],[3.985214471817017,43.7671959400177],[3.974348783493042,43.80147361755372],[3.958292245864868,43.882910251617425],[3.932587623596191,43.89451885223389],[3.900778651237488,43.87885499000549],[3.857451081275939,43.87617111206055],[3.848097085952758,43.86872053146362],[3.838692784309388,43.87046694755554],[3.830797433853149,43.86642336845398],[3.843034982681274,43.85700678825379],[3.842963695526123,43.850454807281494],[3.835418224334717,43.8395881652832],[3.837985515594482,43.82734680175782],[3.815810561180115,43.79264211654663],[3.806451797485352,43.78789734840393],[3.813601970672606,43.7849280834198],[3.811346054077148,43.779104471206665],[3.819514274597168,43.77794575691223],[3.823092103004456,43.7581479549408],[3.815710067749023,43.747251987457275]]]},"properties":{"bv2022":"34276","libbv2022":"Saint-Mathieu-de-Tréviers","nb_com":"12"}},
{"type":"Feature","geometry":{"type":"Polygon","coordinates":[[[2.759482264518738,43.379417657852166],[2.776667237281799,43.438822269439704],[2.825714230537415,43.477319240570075],[2.909449338912964,43.511618614196784],[2.836161851882935,43.56970953941345],[2.753376007080078,43.53253793716431],[2.6082763671875,43.50391364097595],[2.60219144821167,43.43133091926575],[2.64612102508545,43.3859076499939],[2.759482264518738,43.379417657852166]]]},"properties":{"bv2022":"34284","libbv2022":"Saint-Pons-de-Thomières","nb_com":"11"}},
{"type":"Feature","geometry":{"type":"Polygon","coordinates":[[[3.343542098999023,43.27030682563782],[3.330645442008972,43.29240441322327],[3.244009971618652,43.31586194038391],[3.19115161895752,43.299343824386604],[3.193216562271119,43.25040435791016],[3.2405606508255,43.21280884742737],[3.343542098999023,43.27030682563782]]]},"properties":{"bv2022":"34299","libbv2022":"Sérignan","nb_com":"4"}},
{"type":"Feature","geometry":{"type":"Polygon","coordinates":[[[3.268030643463136,43.45841383934021],[3.239094853401184,43.43210363388062],[3.2626633644104,43.397295475006096],[3.331595301628113,43.3783941268921],[3.347254157066345,43.410399436950684],[3.334685683250427,43.44978141784667],[3.268030643463136,43.45841383934021]]]},"properties":{"bv2022":"34300","libbv2022":"Servian","nb_com":"4"}},
{"type":"Feature","geometry":{"type":"Polygon","coordinates":[[[3.566689372062684,43.32615780830383],[3.665732502937317,43.39294934272767],[3.794525623321533,43.44003486633301],[3.830539345741271,43.47060751914977],[3.818488478660585,43.50926208496094],[3.753492712974547,43.493528842926025],[3.72298800945282,43.51966643333435],[3.656848192214967,43.569159507751465],[3.623026609420776,43.52795195579529],[3.625979542732239,43.48682641983032],[3.66176450252533,43.42451667785644],[3.593957781791687,43.389462471008294],[3.566689372062684,43.32615780830383]]]},"properties":{"bv2022":"34301","libbv2022":"Sète","nb_com":"9"}},
{"type":"Feature","geometry":{"type":"Polygon","coordinates":[[[3.345884680747986,43.33231639862061],[3.364785194396973,43.27737045288086],[3.428964614868165,43.29021453857422],[3.439030289649963,43.3280200958252],[3.345884680747986,43.33231639862061]]]},"properties":{"bv2022":"34332","libbv2022":"Vias","nb_com":"1"}}
]}